BIRD-G
1 42821U 98067MV  18291.71025613  .00031543  00000-0  22792-3 0  9994
2 42821  51.6321  91.0936 0002892 271.7422  88.3246 15.73199356 73236
BIRD-M
1 42822U 98067MW  18291.85495325  .00032754  00000-0  23137-3 0  9990
2 42822  51.6319  89.8122 0003040 271.8746  88.1904 15.73709698 73260
BIRD-B
1 42823U 98067MX  18291.71222109  .00033690  00000-0  23558-3 0  9991
2 42823  51.6335  90.3838 0004455 289.5742  70.4776 15.73926335 73241
BIRD-N
1 42824U 98067MY  18291.69433069  .00032175  00000-0  22894-3 0  9997
2 42824  51.6331  91.0392 0004481 291.6655  68.3866 15.73542724 73227
TechnoSat
1 42829U 17042E   18291.86014379  .00000271  00000-0  32859-4 0  9999
2 42829  97.5835 189.4668 0015046 143.1865 217.0390 14.90874409 68754
TOMSK-TPU 120
1 42910U 98067MZ  18291.74611524  .00023725  00000-0  21006-3 0  9998
2 42910  51.6356  98.6514 0004093 310.3533 144.5081 15.68483322 66749
TANYUSHA 1
1 42911U 98067NA  18291.75138553  .00030905  00000-0  25206-3 0  9990
2 42911  51.6366  96.4687 0003931 306.7237 150.5359 15.70323511 66750
TANYUSHA 2
1 42912U 98067NB  18291.76443287  .00028089  00000-0  23854-3 0  9992
2 42912  51.6387  97.8508 0003592 319.4198 240.5785 15.69399481 66751
SFERA 2
1 42913U 98067NC  18291.85947767  .00139012  00000-0  45489-3 0  9992
2 42913  51.6305  78.4188 0005595 313.5741  46.4799 15.89661078 66984
TNS 0-2
1 42914U 98067ND  18291.85342366  .00021530  00000-0  19259-3 0  9998
2 42914  51.6340  98.8854 0004101 312.0145  48.0502 15.68297687 66746
QIKCOM-1
1 42983U 98067NF  18291.78947487  .00003420  00000-0  53062-4 0  9990
2 42983  51.6384 118.0741 0003628 300.6635  59.3999 15.57077077 55470
AO-91
1 43017U 17073E   18290.80572896  .00000454  00000-0  41659-4 0  9990
2 43017  97.7107 216.8532 0257985 232.2785 125.4793 14.78243149 49221
EcAMSat
1 43019U 98067NG  18291.78344372  .00005542  00000-0  78077-4 0  9995
2 43019  51.6396 116.5461 0004339 272.0464  88.0031 15.58346933137814
PICSAT
1 43132U 18004X   18291.25210460  .00001478  00000-0  65944-4 0  9999
2 43132  97.5210 354.1936 0010720  36.3631 323.8331 15.22948900 42449
AO-92
1 43137U 18004AC  18291.17114048  .00001086  00000-0  49252-4 0  9999
2 43137  97.5206 354.1363 0010362  38.4246 321.7727 15.22964372 42425
TianYi 2
1 43155U 18008A   18291.89847441  .00000964  00000-0  61737-4 0  9998
2 43155  97.5140   4.2205 0019417  80.6139  31.3656 15.10754080 41165
Zhou Enlai
1 43156U 18008B   18291.86370068  .00000992  00000-0  64409-4 0  9992
2 43156  97.5185   4.1250 0016701  79.4731  31.4668 15.10231587 41145
TianYi 6
1 43158U 18008D   18291.78617249  .00000610  00000-0  41429-4 0  9994
2 43158  97.5141   3.7907 0015301  74.4095  49.9470 15.09908241 41103
S-Net G
1 43186U 18014G   18291.72146702 -.00000255  00000-0 -17299-4 0  9992
2 43186  97.7163 198.5496 0012490  96.8076 263.4567 14.96518865 38794
S-Net H
1 43187U 18014H   18291.72131639 -.00000254  00000-0 -17224-4 0  9993
2 43187  97.7161 198.5436 0012487  96.7776 263.4867 14.96519971 38791
S-Net J
1 43188U 18014J   18291.78804192 -.00000269  00000-0 -18541-4 0  9990
2 43188  97.7164 198.6182 0012490  96.6489 263.6154 14.96520571 38809
S-Net K
1 43189U 18014K   18291.72137513 -.00000265  00000-0 -18197-4 0  9994
2 43189  97.7160 198.5425 0012479  96.7377 263.5264 14.96519401 37348
FMN 1
1 43192U 18015A   18291.22676673  .00002737  00000-0  11791-3 0  9995
2 43192  97.3714  57.7350 0018286  72.3251 287.9979 15.23287127 39241
Shaonian Xing
1 43199U 18015H   18291.53650422  .00002076  00000-0  88104-4 0  9999
2 43199  97.3502  57.6305 0019193  83.1126 277.2293 15.24045643 39327
1KUNS-PF
1 43466U 98067NP  18291.79923199  .00013120  00000-0  17528-3 0  9996
2 43466  51.6387 119.6374 0000798 180.9156 179.1835 15.58414087 24957
UBAKUSAT
1 43467U 98067NQ  18291.76623447  .00008570  00000-0  12033-3 0  9996
2 43467  51.6386 120.1701 0002593 219.2681 140.8123 15.57611746 24957
Irazu
1 43468U 98067NR  18290.80698649  .00015570  00000-0  20207-3 0  9997
2 43468  51.6386 124.2612 0000983 169.1567 190.9447 15.59023290124792
EnduroSat One
1 43551U 98067NZ  18291.83120242  .00009685  00000-0  14017-3 0  9995
2 43551  51.6381 121.3423 0005710 314.7200  45.3326 15.56603264 15175
EQUISat
1 43552U 98067PA  18291.00186601  .00008591  00000-0  12622-3 0  9991
2 43552  51.6383 125.5549 0005945 312.3207  47.7280 15.56363858 15003
UiTMSat 1
1 43589U 98067PD  18291.48933160  .00009748  00000-0  14439-3 0  9996
2 43589  51.6380 123.5569 0005303 324.1517  35.9118 15.55960409 10810
Maya 1
1 43590U 98067PE  18290.84583041  .00009305  00000-0  13807-3 0  9993
2 43590  51.6381 126.7598 0005363 322.6414  37.4204 15.55974486 10649
Bhutan 1
1 43591U 98067PF  18291.55061655  .00009911  00000-0  14631-3 0  9994
2 43591  51.6380 123.2168 0005469 326.6723  33.3924 15.56029588 10759
SiriusSat 1
1 43595U 98067PG  18291.82772995  .00009497  00000-0  14285-3 0  9998
2 43595  51.6382 122.0629 0003189 269.3887  90.6739 15.55578258  9979
SiriusSat 2
1 43596U 98067PH  18291.83346973  .00009149  00000-0  13861-3 0  9996
2 43596  51.6392 122.1077 0003809 274.4251  85.6305 15.55429465  9978
Tanusha-3
1 43597U 98067PJ  18291.82926561  .00011093  00000-0  16515-3 0  9993
2 43597  51.6371 122.0679 0003171 287.2109  72.8535 15.55659867  9973
SurfSat
1 43614U 18070B   18291.87054681  .00003160  00000-0  89033-4 0  9991
2 43614  93.0272 263.2955 0017050 151.5448 208.6740 15.36353904  5119
CP-7 DAVE
1 43615U 18070C   18290.89332380  .00003293  00000-0  92793-4 0  9992
2 43615  93.0261 262.8923 0016743 154.8593 205.3479 15.36355145  4967
ELFIN-B
1 43616U 18070D   18291.60844183 -.00000006  00000-0  00000 0 0  9997
2 43616  93.0273 263.1674 0017399 152.4740 207.7541 15.36425348  5076
ELFIN-A
1 43617U 18070E   18291.21712445 -.00000006  00000-0  00000 0 0  9990
2 43617  93.0319 263.0417 0018360 154.3328 205.9069 15.36459279  5013
STARS-Me Mother
1 43640U 98067PQ  18288.71623880  .00008309  00000-0  13013-3 0  9990
2 43640  51.6386 138.0272 0005333 251.1479 108.8216 15.54652138  1416
